{
    "links": {
        "self": "http://www.neowsapp.com/rest/v1/neo/3759350?api_key=iIulBulltgU6a56xZRHN4H3l9WmuAYTsLGpBGhQ2"
    },
    "id": "3759350",
    "neo_reference_id": "3759350",
    "name": "(2016 RZ33)",
    "designation": "2016 RZ33",
    "nasa_jpl_url": "http://ssd.jpl.nasa.gov/sbdb.cgi?sstr=3759350",
    "absolute_magnitude_h": 21.6,
    "estimated_diameter": {
        "kilometers": {
            "estimated_diameter_min": 0.1272198785,
            "estimated_diameter_max": 0.2844722965
        },
        "meters": {
            "estimated_diameter_min": 127.2198785394,
            "estimated_diameter_max": 284.4722965033
        },
        "miles": {
            "estimated_diameter_min": 0.0790507431,
            "estimated_diameter_max": 0.1767628354
        },
        "feet": {
            "estimated_diameter_min": 417.3880663071,
            "estimated_diameter_max": 933.3080892598
        }
    },
    "is_potentially_hazardous_asteroid": false,
    "close_approach_data": [
        {
            "close_approach_date": "2016-09-18",
            "close_approach_date_full": "2016-Sep-18 01:39",
            "epoch_date_close_approach": 1474162740000,
            "relative_velocity": {
                "kilometers_per_second": "14.964998542",
                "kilometers_per_hour": "53873.9947513393",
                "miles_per_hour": "33475.2052386864"
            },
            "miss_distance": {
                "astronomical": "0.0951575977",
                "lunar": "37.0163055053",
                "kilometers": "14235373.930236899",
                "miles": "8845451.1912272462"
            },
            "orbiting_body": "Earth"
        }
    ],
    "orbital_data": {
        "orbit_id": "3",
        "orbit_determination_date": "2017-04-06 08:23:53",
        "first_observation_date": "2016-09-11",
        "last_observation_date": "2016-09-14",
        "data_arc_in_days": 3,
        "observations_used": 44,
        "orbit_uncertainty": "9",
        "minimum_orbit_intersection": ".0946403",
        "jupiter_tisserand_invariant": "3.372",
        "epoch_osculation": "2457643.5",
        "eccentricity": ".6345703180841088",
        "semi_major_axis": "2.181644031975098",
        "inclination": "9.664560727897719",
        "ascending_node_longitude": "205.2906163136666",
        "orbital_period": "1176.994036519885",
        "perihelion_distance": ".7972374846583623",
        "perihelion_argument": "205.2510381338954",
        "aphelion_distance": "3.566050579291833",
        "perihelion_time": "2457685.716002324837",
        "mean_anomaly": "347.0876483946531",
        "mean_motion": ".3058639116511087",
        "equinox": "J2000",
        "orbit_class": {
            "orbit_class_type": "APO",
            "orbit_class_description": "Near-Earth asteroid orbits which cross the Earth’s orbit similar to that of 1862 Apollo",
            "orbit_class_range": "a (semi-major axis) > 1.0 AU; q (perihelion) < 1.017 AU"
        }
    },
    "is_sentry_object": false
}